{
    "links": {
        "self": "http://www.neowsapp.com/rest/v1/neo/3843399?api_key=iIulBulltgU6a56xZRHN4H3l9WmuAYTsLGpBGhQ2"
    },
    "id": "3843399",
    "neo_reference_id": "3843399",
    "name": "(2019 OW2)",
    "designation": "2019 OW2",
    "nasa_jpl_url": "http://ssd.jpl.nasa.gov/sbdb.cgi?sstr=3843399",
    "absolute_magnitude_h": 22.4,
    "estimated_diameter": {
        "kilometers": {
            "estimated_diameter_min": 0.0880146521,
            "estimated_diameter_max": 0.1968067451
        },
        "meters": {
            "estimated_diameter_min": 88.0146520901,
            "estimated_diameter_max": 196.8067450894
        },
        "miles": {
            "estimated_diameter_min": 0.0546897524,
            "estimated_diameter_max": 0.122290004
        },
        "feet": {
            "estimated_diameter_min": 288.7619911632,
            "estimated_diameter_max": 645.6914415591
        }
    },
    "is_potentially_hazardous_asteroid": false,
    "close_approach_data": [
        {
            "close_approach_date": "2019-07-17",
            "close_approach_date_full": "2019-Jul-17 06:08",
            "epoch_date_close_approach": 1563343680000,
            "relative_velocity": {
                "kilometers_per_second": "17.2101437498",
                "kilometers_per_hour": "61956.5174994553",
                "miles_per_hour": "38497.3705540366"
            },
            "miss_distance": {
                "astronomical": "0.1546113574",
                "lunar": "60.1438180286",
                "kilometers": "23129529.744848738",
                "miles": "14372023.3438710644"
            },
            "orbiting_body": "Earth"
        }
    ],
    "orbital_data": {
        "orbit_id": "2",
        "orbit_determination_date": "2019-10-14 05:45:15",
        "first_observation_date": "2019-07-25",
        "last_observation_date": "2019-07-30",
        "data_arc_in_days": 5,
        "observations_used": 24,
        "orbit_uncertainty": "9",
        "minimum_orbit_intersection": ".0556128",
        "jupiter_tisserand_invariant": "3.151",
        "epoch_osculation": "2458690.5",
        "eccentricity": ".6425344999008628",
        "semi_major_axis": "2.480918462322511",
        "inclination": "5.153528209818973",
        "ascending_node_longitude": "230.3209093073469",
        "orbital_period": "1427.306236449105",
        "perihelion_distance": ".8868427588392991",
        "perihelion_argument": "4.876726887471322",
        "aphelion_distance": "4.074994165805724",
        "perihelion_time": "2458643.525946301307",
        "mean_anomaly": "11.84795448915036",
        "mean_motion": ".2522233777213913",
        "equinox": "J2000",
        "orbit_class": {
            "orbit_class_type": "APO",
            "orbit_class_description": "Near-Earth asteroid orbits which cross the Earth’s orbit similar to that of 1862 Apollo",
            "orbit_class_range": "a (semi-major axis) > 1.0 AU; q (perihelion) < 1.017 AU"
        }
    },
    "is_sentry_object": false
}